[
  {
    "version": 18,
    "bin": "tracker-edge-18@3.3.0.bin",
    "target": "3.3.0",
    "zip": "v18.zip",
    "v": "v18",
    "title": "Tracker Edge v18 (Device OS 3.3.0)"
  },
  {
    "version": 17,
    "bin": "tracker-edge-17@3.2.0.bin",
    "target": "3.2.0",
    "zip": "v17.zip",
    "v": "v17",
    "title": "Tracker Edge v17 (Device OS 3.2.0)"
  },
  {
    "version": 16,
    "bin": "tracker-edge-16@3.1.0.bin",
    "target": "3.1.0",
    "zip": "v16.zip",
    "v": "v16",
    "title": "Tracker Edge v16 (Device OS 3.1.0)"
  },
  {
    "version": 15,
    "bin": "tracker-edge-15@3.1.0.bin",
    "target": "3.1.0",
    "zip": "v15.zip",
    "v": "v15",
    "title": "Tracker Edge v15 (Device OS 3.1.0)"
  },
  {
    "version": 14,
    "bin": "tracker-edge-14@3.0.0.bin",
    "target": "3.0.0",
    "zip": "v14.zip",
    "v": "v14",
    "title": "Tracker Edge v14 (Device OS 3.0.0)"
  },
  {
    "version": 13,
    "bin": "tracker-edge-13@3.0.0.bin",
    "target": "3.0.0",
    "zip": "v13.zip",
    "v": "v13",
    "title": "Tracker Edge v13 (Device OS 3.0.0)"
  },
  {
    "version": 12,
    "bin": "tracker-edge-12@3.0.0-rc.2.bin",
    "target": "3.0.0-rc.2",
    "zip": "v12.zip",
    "v": "v12",
    "title": "Tracker Edge v12 (Device OS 3.0.0-rc.2)"
  },
  {
    "version": 11,
    "bin": "tracker-edge-11@2.0.0-rc.4.bin",
    "target": "2.0.0-rc.4",
    "zip": "v11.zip",
    "v": "v11",
    "title": "Tracker Edge v11 (Device OS 2.0.0-rc.4)"
  },
  {
    "version": 10,
    "bin": "tracker-edge-10@2.0.0-rc.3.bin",
    "target": "2.0.0-rc.3",
    "zip": "v10.zip",
    "v": "v10",
    "title": "Tracker Edge v10 (Device OS 2.0.0-rc.3)"
  },
  {
    "version": 9,
    "bin": "tracker-edge-9@1.5.4-rc.2.bin",
    "target": "1.5.4-rc.2",
    "zip": "v9.zip",
    "v": "v9",
    "title": "Tracker Edge v9 (Device OS 1.5.4-rc.2)"
  },
  {
    "version": 8,
    "bin": "tracker-edge-8@1.5.4-rc.1.bin",
    "target": "1.5.4-rc.1",
    "zip": "v8.zip",
    "v": "v8",
    "title": "Tracker Edge v8 (Device OS 1.5.4-rc.1)"
  },
  {
    "version": 7,
    "bin": "tracker-edge-7@1.5.4-rc.1.bin",
    "target": "1.5.4-rc.1",
    "zip": "v7.zip",
    "v": "v7",
    "title": "Tracker Edge v7 (Device OS 1.5.4-rc.1)"
  }
]